[{"OBJECT_NAME":"STARLINK-32650","OBJECT_ID":"2024-231P","EPOCH":"2026-03-09T16:12:37.159776","MEAN_MOTION":15.30203554,"ECCENTRICITY":0.00011617,"INCLINATION":53.161,"RA_OF_ASC_NODE":219.8771,"ARG_OF_PERICENTER":85.7123,"MEAN_ANOMALY":274.401,"EPHEMERIS_TYPE":0,"CLASSIFICATION_TYPE":"U","NORAD_CAT_ID":62231,"ELEMENT_SET_NO":999,"REV_AT_EPOCH":7176,"BSTAR":0.0010614358,"MEAN_MOTION_DOT":0.00031213,"MEAN_MOTION_DDOT":0},{"OBJECT_NAME":"GEOSCAN 4 (RS92S4)","OBJECT_ID":"2025-155S","EPOCH":"2026-03-09T21:50:07.724832","MEAN_MOTION":15.30369837,"ECCENTRICITY":0.00070968,"INCLINATION":97.4465,"RA_OF_ASC_NODE":37.7626,"ARG_OF_PERICENTER":154.7045,"MEAN_ANOMALY":205.4544,"EPHEMERIS_TYPE":0,"CLASSIFICATION_TYPE":"U","NORAD_CAT_ID":64892,"ELEMENT_SET_NO":999,"REV_AT_EPOCH":6562,"BSTAR":0.00068609503,"MEAN_MOTION_DOT":0.00020121,"MEAN_MOTION_DDOT":0}]
